STARLINK-34756          
1 64849U 25152H   25226.58335648  .00400823  00000+0  44269-2 0  9998
2 64849  97.6008  80.0944 0000805 342.8911 337.2989 15.61741988  4789
STARLINK-34757          
1 64850U 25152J   25226.58335648  .00060747  00000+0  15479-2 0  9998
2 64850  97.6037  79.9726 0001590 109.2786 287.9511 15.39334338  4789
STARLINK-34722          
1 64851U 25152K   25226.49609854  .00055466  00000+0  10131-2 0  9994
2 64851  97.6050  79.9182 0002213  79.2393 280.9107 15.49222772  4158
STARLINK-34564          
1 64852U 25152L   25226.49574788  .00058045  00000+0  10598-2 0  9995
2 64852  97.6044  79.9203 0001975  73.3344 286.8123 15.49223040  4153
STARLINK-34676          
1 64853U 25152M   25226.58335648 -.01851686  00000+0 -44990-1 0  9993
2 64853  97.6038  80.0119 0001932  74.6984  44.8750 15.44124558  4789
STARLINK-34682          
1 64854U 25152N   25226.58335648  .00049886  00000+0  12746-2 0  9997
2 64854  97.6033  79.9930 0001576  96.8007 346.5851 15.39303787  4780
STARLINK-34631          
1 64855U 25152P   25226.49469957  .00061856  00000+0  11285-2 0  9997
2 64855  97.6042  79.9216 0002072  73.1392 287.0085 15.49228261  4158
STARLINK-34578          
1 64856U 25152Q   25226.49435040  .00061216  00000+0  11171-2 0  9998
2 64856  97.6038  79.9222 0001974  77.0077 283.1393 15.49224229  4153
STARLINK-34683          
1 64857U 25152R   25226.58335648  .00047951  00000+0  12248-2 0  9998
2 64857  97.6035  79.9825 0002015  73.6881 345.5737 15.39321960  4785
STARLINK-34654          
1 64858U 25152S   25226.49365128  .00068131  00000+0  12418-2 0  9997
2 64858  97.6041  79.9231 0002270  81.3905 278.7603 15.49227821  4152
STARLINK-34575          
1 64859U 25152T   25226.58335648 -.01888605  00000+0 -44056-1 0  9993
2 64859  97.6033  80.0177 0002178  73.7042  62.1893 15.45377207  4785
STARLINK-34570          
1 64860U 25152U   25226.49295168  .00065021  00000+0  11857-2 0  9997
2 64860  97.6043  79.9243 0001973  74.5312 285.6156 15.49227817  4150
STARLINK-34651          
1 64861U 25152V   25226.48361427  .00061494  00000+0  98869-3 0  9998
2 64861  97.6030  79.9367 0001902  75.8687 284.2776 15.52800907  4159
STARLINK-34684          
1 64862U 25152W   25226.49225460  .00066735  00000+0  12165-2 0  9993
2 64862  97.6043  79.9258 0002604  61.7358 298.4155 15.49229768  4156
STARLINK-34690          
1 64863U 25152X   25226.49190230  .00065714  00000+0  11983-2 0  9993
2 64863  97.6053  79.9261 0001760  91.5551 268.5901 15.49225804  4154
STARLINK-34628          
1 64864U 25152Y   25226.49153189  .00060488  00000+0  11040-2 0  9993
2 64864  97.6040  79.9260 0001709 105.6493 254.4946 15.49223062  4152
STARLINK-34544          
1 64865U 25152Z   25226.58335648  .00063614  00000+0  16240-2 0  9997
2 64865  97.6035  79.9998 0001608  84.0486  11.2751 15.39263012  4673
O3B MPOWER A            
1 64866U 25153A   25216.04933964  .00000045  00000+0 -10540-2 0  9991
2 64866   8.7040  72.7484 1866856 214.4291 131.9558  7.18924737   893
O3B MPOWER B            
1 64867U 25153B   25215.73691733  .00000047  00000+0 -44399-3 0  9994
2 64867   9.0893  73.3062 1896449 214.2066 132.0093  7.24232134   865
FALCON 9 R/B            
1 64868U 25153C   25226.59481399  .00000062  00000+0  51803-2 0  9999
2 64868   9.7266  57.4001 1940239 246.3846  92.1237  7.32307386  1668
LIDE                    
1 64869U 25154A   25226.46856958  .00004066  00000+0  41000-3 0  9991
2 64869  97.7124 292.0874 0006558 158.7615 201.3877 14.91646787  3233
TRACERS 1               
1 64870U 25154B   25226.46047036  .00001547  00000+0  15744-3 0  9999
2 64870  97.7125 292.0965 0005399 183.2001 176.9184 14.92159982  3236
2025-154C               
1 64871U 25154C   25226.59230050  .00002621  00000+0  26096-3 0  9990
2 64871  97.7098 292.2261 0006736 173.8801 186.2502 14.92457994  3250
2025-154D               
1 64872U 25154D   25226.45872977  .00004669  00000+0  46198-3 0  9995
2 64872  97.7098 292.0955 0005176 189.1240 170.9886 14.92333673  3222
TRACERS 2               
1 64873U 25154E   25226.18852114  .00001556  00000+0  15732-3 0  9999
2 64873  97.7130 291.8396 0006118 194.0470 166.0580 14.92418974  3194
PEXT (BARD)             
1 64874U 25154F   25226.42909347  .00003577  00000+0  18138-3 0  9996
2 64874  97.4385 292.0086 0001286 275.4076  84.7011 15.17580093  3274
REAL                    
1 64875U 25154G   25226.15234701  .00013343  00000+0  64609-3 0  9998
2 64875  97.4443 291.7807 0001966 114.4992 245.6447 15.18680952  3234
IONOSFERA-M 3           
1 64876U 25155A   25226.57616993  .00000109  00000+0  68610-4 0  9996
2 64876  98.5565 191.9190 0002277  55.0156 305.1235 14.22094879  2840
IONOSFERA-M 4           
1 64877U 25155B   25226.58268121  .00000081  00000+0  56955-4 0  9992
2 64877  98.5565 191.9108 0001681  61.4146 298.7200 14.21191331  2847
INNOSAT 16 (RS92S7)     
1 64878U 25155C   25226.56794551  .00003557  00000+0  16192-3 0  9991
2 64878  97.4123 191.5054 0011719 173.7581 186.3803 15.21289736 33994
GEOSCAN 6 (RS92S6)      
1 64879U 25155D   25226.55905188  .00008282  00000+0  36464-3 0  9995
2 64879  97.4140 191.5234 0009757 166.6175 193.5322 15.22054436 33997
GEOSCAN 1 (RS92S1)      
1 64880U 25155E   25226.55877990  .00008988  00000+0  39506-3 0  9999
2 64880  97.4144 191.5251 0009722 167.1079 193.0407 15.22086062 33992
239ALFEROV (RS61S)      
1 64881U 25155F   25226.55732832  .00010452  00000+0  45696-3 0  9991
2 64881  97.4157 191.5307 0009569 166.5534 193.5959 15.22226726 33997
2025-155G               
1 64882U 25155G   25226.55689531  .00007391  00000+0  32444-3 0  9994
2 64882  97.4158 191.5177 0008930 166.2340 193.9142 15.22201322 33990
2025-155H               
1 64883U 25155H   25226.55669870  .00007353  00000+0  32263-3 0  9996
2 64883  97.4157 191.5172 0008877 166.1503 193.9979 15.22216873 33990
2025-155J               
1 64884U 25155J   25226.55660158  .00007395  00000+0  32448-3 0  9998
2 64884  97.4152 191.5166 0008804 166.7280 193.4189 15.22217562 33991
2025-155K               
1 64885U 25155K   25226.55384286  .00017190  00000+0  74013-3 0  9992
2 64885  97.4117 191.5197 0010873 156.8364 203.3364 15.22616738 33993
2025-155L               
1 64886U 25155L   25226.55383471  .00016344  00000+0  70434-3 0  9991
2 64886  97.4117 191.5205 0010576 156.5632 203.6088 15.22600037 33990
2025-155M               
1 64887U 25155M   25226.55416497  .00013448  00000+0  58156-3 0  9996
2 64887  97.4134 191.5250 0010195 157.0780 203.0913 15.22528249 33992
2025-155N               
1 64888U 25155N   25226.55346858  .00014790  00000+0  63742-3 0  9998
2 64888  97.4125 191.5230 0010462 156.2281 203.9441 15.22620602 33996
2025-155P               
1 64889U 25155P   25226.55556643  .00004764  00000+0  21003-3 0  9998
2 64889  97.4155 191.5246 0008421 162.8657 197.2865 15.22246573 33995
GEOSCAN 2 (RS92S2)      
1 64890U 25155Q   25226.55339512  .00008585  00000+0  37308-3 0  9994
2 64890  97.4138 191.5279 0009363 154.3458 205.8244 15.22489118 33996
2025-155R               
1 64891U 25155R   25226.55202132  .00010241  00000+0  44275-3 0  9995
2 64891  97.4150 191.5268 0007954 170.2268 189.9125 15.22626943 33998
2025-155S               
1 64892U 25155S   25226.55193002  .00010547  00000+0  45574-3 0  9993
2 64892  97.4151 191.5277 0007980 171.2325 188.9052 15.22636292 33990
GEOSCAN 3 (RS92S3)      
1 64893U 25155T   25226.55080926  .00010913  00000+0  47013-3 0  9991
2 64893  97.4150 191.5287 0007759 172.7859 187.3490 15.22732758 33996
INNOSAT 3 (RS92S0)      
1 64894U 25155U   25226.54977307  .00012841  00000+0  55069-3 0  9991
2 64894  97.4149 191.5302 0007751 174.4775 185.6549 15.22843407 33991
2025-155V               
1 64895U 25155V   25226.55658421  .00007446  00000+0  32656-3 0  9998
2 64895  97.4160 191.5186 0008879 165.8528 194.2959 15.22229648 33982
MICROCARB               
1 64899U 25156A   25226.59758541  .00000567  00000+0  98595-4 0  9993
2 64899  98.0137 303.8235 0016902 167.2231 192.9408 14.71762025  2864
CO3D 3                  
1 64900U 25156B   25226.54057918  .00006425  00000+0  27905-3 0  9996
2 64900  97.4439 304.5730 0004411 131.5533 228.6082 15.22646780  2944
CO3D 4                  
1 64901U 25156C   25226.54104926  .00006228  00000+0  27064-3 0  9996
2 64901  97.4558 304.5869 0004627 129.1713 230.9935 15.22638543  2943
CO3D 2                  
1 64902U 25156D   25226.42028381  .00005831  00000+0  27106-3 0  9990
2 64902  97.4334 304.4103 0001806 108.1256 252.0176 15.20358124  2923
CO3D 1                  
1 64903U 25156E   25226.22300201  .00003214  00000+0  15075-3 0  9998
2 64903  97.4345 304.2240 0002322 121.5386 238.6076 15.20380656  2893
STARLINK-34647          
1 64904U 25157A   25226.58335648 -.01558616  00000+0 -23141-1 0  9997
2 64904  53.1591 240.1994 0001089  64.3441 104.5378 15.57853881  4269
STARLINK-34273          
1 64905U 25157B   25226.58335648 -.01561565  00000+0 -23191-1 0  9990
2 64905  53.1591 240.1954 0001009  70.6053 100.1961 15.57853927  4279
STARLINK-34713          
1 64906U 25157C   25226.58335648 -.01559249  00000+0 -23152-1 0  9994
2 64906  53.1592 240.1911 0001030  74.7847  97.9318 15.57853978  4224
STARLINK-34712          
1 64907U 25157D   25226.58335648 -.01561575  00000+0 -23191-1 0  9993
2 64907  53.1593 240.1871 0000959  78.6057  96.0284 15.57854597  4260
STARLINK-34702          
1 64908U 25157E   25226.58335648 -.01559911  00000+0 -23163-1 0  9994
2 64908  53.1593 240.1832 0001098  67.7770 108.7742 15.57853426  4264
STARLINK-34687          
1 64909U 25157F   25226.58335648 -.01558194  00000+0 -23136-1 0  9997
2 64909  53.1593 240.1786 0001053  78.2519 100.2173 15.57851889  4224
STARLINK-34642          
1 64910U 25157G   25226.58335648 -.01558114  00000+0 -23133-1 0  9998
2 64910  53.1594 240.1747 0001149  68.5916 111.7932 15.57852865  4262
